CUTE-1 (CO-55)          
1 27844U 03031E   22320.42907106  .00000274  00000+0  14214-3 0  9997
2 27844  98.6803 325.8404 0010296  27.8899 332.2829 14.22540352  5482
CUBESAT XI-IV (CO-57)   
1 27848U 03031J   22320.58062430  .00000228  00000+0  12283-3 0  9993
2 27848  98.6844 326.4742 0010435  41.1177 319.0785 14.22085152  5280
CUBESAT XI-V            
1 28895U 05043F   22320.33651958  .00001041  00000+0  20439-3 0  9999
2 28895  98.1274  89.5846 0016938  27.0972 333.1112 14.64662126909649
CUTE-1.7+APD II (CO-65) 
1 32785U 08021C   22320.48602779  .00001873  00000+0  19831-3 0  9991
2 32785  97.6786 286.7305 0014359  89.4481 270.8382 14.90237832789123
AAUSAT-II               
1 32788U 08021F   22319.92620844  .00004234  00000+0  35397-3 0  9993
2 32788  97.5505 300.1307 0010981 343.4424  16.6440 14.98977903791115
DELFI-C3 (DO-64)        
1 32789U 08021G   22320.01461650  .00014353  00000+0  70741-3 0  9999
2 32789  97.3284 341.1161 0010429 145.4009 214.7905 15.17999039794887
SEEDS II (CO-66)        
1 32791U 08021J   22320.44111517  .00002835  00000+0  27325-3 0  9995
2 32791  97.6312 292.0306 0014049  48.2262 312.0156 14.93623364789953
SWISSCUBE               
1 35932U 09051B   22320.35748650  .00000745  00000+0  17635-3 0  9994
2 35932  98.5465 180.4008 0006680 307.6148  52.4442 14.57080028698213
BEESAT-1                
1 35933U 09051C   22320.17469426  .00000645  00000+0  15414-3 0  9998
2 35933  98.5399 181.7311 0005090 325.0081  35.0782 14.57069166698264
ITUPSAT1                
1 35935U 09051E   22320.56039892  .00000587  00000+0  14388-3 0  9997
2 35935  98.5499 182.1409 0007422 324.3983  35.6718 14.56163602698011
TISAT 1                 
1 36799U 10035E   22320.56538303  .00003174  00000+0  30539-3 0  9992
2 36799  98.1620 176.9361 0010823 322.5982  37.4482 14.93717301670467
M-CUBED & EXP-1 PRIME   
1 37855U 11061F   22320.52839507  .00009998  00000+0  40811-3 0  9996
2 37855 101.7173 160.6829 0144545 325.7107  33.4842 15.15707909604244
AEROCUBE 4.5A           
1 38767U 12048K   22320.39318755  .00005674  00000+0  39430-3 0  9999
2 38767  64.6664 353.2970 0162608 220.8946 137.9879 14.96399693173507
AEROCUBE 4.5B           
1 38768U 12048L   22320.30129051  .00006293  00000+0  39277-3 0  9997
2 38768  64.6659 304.4640 0146644 216.2745 142.8363 15.01843234173934
STRAND-1                
1 39090U 13009E   22319.78090208  .00000250  00000+0  10187-3 0  9991
2 39090  98.3941 153.9275 0009040 173.6429 186.4873 14.35368522509105
BRITE-AUSTRIA           
1 39091U 13009F   22320.32606212  .00000165  00000+0  72507-4 0  9992
2 39091  98.3961 153.6509 0010396 179.5987 180.5209 14.35328719509219
SOMP                    
1 39134U 13015E   22320.34238829  .00021416  00000+0  64256-3 0  9997
2 39134  64.8592 281.7738 0031393 258.7427 101.0178 15.34000043530103
BEESAT-3                
1 39135U 13015F   22320.23461191  .00013837  00000+0  50535-3 0  9999
2 39135  64.8650 322.2545 0036659 261.8297  97.8676 15.27727782529264
BEESAT-2                
1 39136U 13015G   22320.39100369  .00012535  00000+0  48243-3 0  9991
2 39136  64.8741 330.8943 0024887 292.5261  67.3235 15.26398387529071
NEE-01 PEGASO           
1 39151U 13018B   22320.51643995  .00001584  00000+0  20899-3 0  9991
2 39151  98.0000  65.7637 0017752 120.5091 239.7877 14.81388736516185
ESTCUBE 1               
1 39161U 13021C   22320.16877944  .00001671  00000+0  26590-3 0  9991
2 39161  97.8969  33.3893 0008409 300.9709  59.0675 14.73289603511808
POPACS 1                
1 39268U 13055D   22320.60171595  .00016170  00000+0  39006-3 0  9990
2 39268  80.9944  75.2422 0549363  99.3426 267.0293 14.56187133475395
POPACS 2                
1 39269U 13055E   22320.46425429  .00008623  00000+0  23486-3 0  9992
2 39269  81.0097 137.0260 0634058 259.6055  93.3117 14.35888325471972
POPACS 3                
1 39270U 13055F   22320.29156868  .00006623  00000+0  19838-3 0  9997
2 39270  81.0131 172.8907 0681873   1.0577 359.1854 14.23688882450222
ZACUBE-1 (TSHEPISOSAT)  
1 39417U 13066B   22320.42322929  .00002065  00000+0  25382-3 0  9997
2 39417  97.6575 285.2677 0055200 266.3654  93.1246 14.83014022485643
WNISAT-1                
1 39423U 13066H   22320.42579308  .00000800  00000+0  16560-3 0  9992
2 39423  97.7265 190.5277 0174860  23.1758 337.7197 14.53660815476533
TRITON-1                
1 39427U 13066M   22320.34984889  .00001259  00000+0  20110-3 0  9996
2 39427  97.8229 249.6297 0111853 138.4115 222.5667 14.69450629481082
DELFI-N3XT              
1 39428U 13066N   22320.37004722  .00001908  00000+0  29456-3 0  9992
2 39428  97.8223 248.3056 0116216 151.1211 209.6494 14.69994911480847
GOMX-1                  
1 39430U 13066Q   22320.49441503  .00002327  00000+0  41984-3 0  9996
2 39430  97.7959 218.9311 0146956 285.6839  72.8145 14.60639365478485
CUBEBUG-2 (LO-74)       
1 39440U 13066AA  22320.38585164  .00002666  00000+0  36179-3 0  9993
2 39440  97.7460 271.7396 0078077 359.8523   0.2651 14.77586231482714
NEE-02 KRYSAOR          
1 39441U 13066AB  22320.52485041  .00001821  00000+0  25726-3 0  9991
2 39441  97.7570 268.9592 0080527  13.9385 346.4022 14.76151268482466
FUNCUBE-1 (AO-73)       
1 39444U 13066AE  22320.39106024  .00002734  00000+0  32454-3 0  9990
2 39444  97.6450 287.6707 0053883 253.2531 106.2767 14.84241215484649
UWE-3                   
1 39446U 13066AG  22320.54949749  .00002484  00000+0  32160-3 0  9994
2 39446  97.7067 278.2422 0066703 314.5470  45.0306 14.80197652482956
AEROCUBE 5A             
1 39465U 13072D   22320.55879563  .00040439  00000+0  16469-2 0  9994
2 39465 120.4810 165.7923 0169232  77.7013 284.2948 15.12032054172488
AEROCUBE 5B             
1 39466U 13072E   22319.91906033  .01111669  45684-3  62006-2 0  9990
2 39466 120.4410 276.7673 0060553 109.4464 251.3191 15.76286841173963
BRITE-CA1 (TORONTO)     
1 40020U 14033L   22320.37035009  .00000923  00000+0  16279-3 0  9994
2 40020  97.7973 111.7988 0087358 138.3863 222.4034 14.67276297449935
DUCHIFAT-1              
1 40021U 14033M   22320.50836016  .00003823  00000+0  36310-3 0  9997
2 40021  98.0314 273.7067 0010035 258.5569 101.4523 14.94090840457398
NANOSATC-BR1            
1 40024U 14033Q   22320.50459339  .00002891  00000+0  28554-3 0  9994
2 40024  98.0017 266.2334 0009875 266.8878  93.1210 14.92732456456652
QB50P1                  
1 40025U 14033R   22320.54845365  .00002396  00000+0  24603-3 0  9998
2 40025  97.9734 259.2813 0010248 278.8423  81.1634 14.91328165456425
QB50P2                  
1 40032U 14033Y   22320.36632700  .00003061  00000+0  31767-3 0  9992
2 40032  97.9479 253.8761 0009665 276.8608  83.1510 14.90694421456240
PERSEUS-M2              
1 40037U 14033AD  22320.56189219  .00001175  00000+0  13585-3 0  9993
2 40037  97.8989 241.9419 0012892 302.8092  57.1882 14.87429426456230
PERSEUS-M1              
1 40039U 14033AF  22320.32785305  .00001192  00000+0  13906-3 0  9993
2 40039  97.8872 239.1781 0012769 302.8840  57.1146 14.87028396455578
POLYITAN-1              
1 40042U 14033AJ  22320.55353844  .00002921  00000+0  29705-3 0  9996
2 40042  97.9843 260.7031 0012231 269.6782  90.3034 14.91534847456314
TIGRISAT                
1 40043U 14033AK  22320.44036299  .00001030  00000+0  15469-3 0  9999
2 40043  97.6551 141.5533 0059448  25.1681 335.2405 14.75367853452036
AEROCUBE 6A             
1 40045U 14033AM  22320.26650248  .00001686  00000+0  24110-3 0  9997
2 40045  97.6576 150.5977 0056868  12.5369 347.7241 14.76789256452181
AEROCUBE 6B             
1 40046U 14033AN  22320.26620166  .00001941  00000+0  27311-3 0  9994
2 40046  97.6502 149.0083 0055521  10.5523 349.6839 14.77374722452191
UKUBE-1                 
1 40074U 14037F   22320.36208321  .00003339  00000+0  38806-3 0  9999
2 40074  98.3611 208.8512 0004633 139.3776 220.7729 14.86076928452622
BRITE-PL2 (HEWELIUSZ)   
1 40119U 14049B   22320.26060495  .00001254  00000+0  15121-3 0  9998
2 40119  97.8847  54.3588 0018387 104.6360 255.6895 14.85490814446547
FIREBIRD 4              
1 40378U 15003C   22320.54506580  .00022442  00000+0  56323-3 0  9998
2 40378  99.0785 220.0900 0085525 226.5704 132.8396 15.36286026431713
GRIFEX                  
1 40379U 15003D   22320.25228451  .00014481  00000+0  46726-3 0  9995
2 40379  99.0872 203.7407 0105635 277.1728  81.7506 15.26965262430757
CP10 (EXOCUBE)          
1 40380U 15003E   22320.59981642  .00010829  00000+0  39146-3 0  9992
2 40380  99.0982 196.1449 0116246 303.2059  55.8069 15.22471599430285
TIANWANG 1A (TW-1A)     
1 40928U 15051D   22320.60927679  .00181254  00000+0  83156-3 0  9996
2 40928  97.0179 343.5186 0006086 143.2183 337.1673 15.83162328402072
EXACTVIEW 9             
1 40936U 15052G   22320.27980837  .00001913  00000+0  17381-3 0  9994
2 40936   6.0015 169.7171 0009991 150.7604 209.3083 14.77496928385704
AEROCUBE 5C             
1 40965U 15058B   22320.37289980  .00001179  00000+0  15197-3 0  9991
2 40965  64.7782 350.2224 0172722 149.4220 211.7095 14.76214585171389
AEROCUBE 7              
1 40966U 15058C   22320.51190177  .00001339  00000+0  16814-3 0  9992
2 40966  64.7793 346.5587 0170243 148.9430 212.1877 14.76914607171414
ATHENOXAT 1             
1 41168U 15077C   22320.43417595  .00020650  00000+0  74333-3 0  9992
2 41168  14.9832  40.5301 0008083 218.1881 228.2900 15.26078289383511
GALASSIA                
1 41170U 15077E   22320.51936170  .00014605  00000+0  55095-3 0  9996
2 41170  14.9888  32.6697 0009731 247.9780 111.9508 15.24030032383428
VELOX-II                
1 41171U 15077F   22320.55089995  .00009674  00000+0  42103-3 0  9991
2 41171  14.9902 114.2909 0007450  73.1713 286.9426 15.18428414382744
HORYU-4                 
1 41340U 16012D   22320.57626789  .00004100  00000+0  27977-3 0  9990
2 41340  31.0037 106.9379 0012724 276.9317  82.9872 15.04435848370642
